OBJECT_NAME,OBJECT_ID,EPOCH,MEAN_MOTION,ECCENTRICITY,INCLINATION,RA_OF_ASC_NODE,ARG_OF_PERICENTER,MEAN_ANOMALY,EPHEMERIS_TYPE,CLASSIFICATION_TYPE,NORAD_CAT_ID,ELEMENT_SET_NO,REV_AT_EPOCH,BSTAR,MEAN_MOTION_DOT,MEAN_MOTION_DDOT
OMNI-L1,2022-033A,2026-06-05T10:28:39.343008,14.82704063,.00043854,97.8390,235.8425,338.0481,22.0544,0,U,52157,999,22571,.29444768E-3,.2324E-4,0
ENMAP,2022-033C,2026-06-06T04:12:57.170880,14.74977649,.0001401,97.9790,239.5811,80.0661,280.0706,0,U,52159,999,22503,.45813E-4,.258E-5,0
ARCSAT-1,2022-033E,2026-06-04T05:49:18.938784,15.53290234,.00035768,97.2749,247.3261,231.4725,128.6209,0,U,52161,999,23369,.2369493E-3,.14842E-3,0
GLOBAL-18,2022-034B,2026-06-05T03:59:31.577280,15.45742237,.00035701,52.9833,314.0678,215.1127,144.9644,0,U,52196,999,23510,.42226237E-3,.20377E-3,0
GAOFEN-3 03,2022-035A,2026-06-05T23:46:12.842688,14.42213616,.00010759,98.4063,165.7332,94.3031,265.8282,0,U,52200,999,21923,.24201637E-4,.36E-6,0
DAQI-1,2022-039A,2026-06-05T22:57:25.041312,14.57670429,.00025916,98.1486,96.0412,308.6457,51.4509,0,U,52257,999,22030,.64706558E-4,.25E-5,0
BRO-6,2022-047AE,2026-06-06T03:56:15.247104,15.49789410,.0005749,97.3396,248.0141,113.3093,246.8764,0,U,52422,999,22944,.86844E-3,.4847E-3,0
JILIN-1 GAOFEN 3D27,2022-048B,2026-06-05T20:08:36.768480,15.72760792,.00025897,97.5697,269.7707,98.7866,261.3691,0,U,52444,999,22769,.10709701E-2,.146381E-2,0
JILIN-1 GAOFEN 3D28,2022-048C,2026-06-05T22:08:32.144928,15.75420747,.00018226,97.5643,269.9686,144.5462,215.5924,0,U,52445,999,22775,.10779201E-2,.165461E-2,0
VIGORIDE-3,2022-057AE,2026-06-05T13:17:50.467776,15.27153138,.00088932,97.6599,296.2224,156.7838,203.3804,0,U,52760,999,22338,.23974246E-3,.6311E-4,0
ION SCV-006,2022-057AF,2026-06-05T23:04:31.108224,15.45007960,.0018061,97.6095,305.0484,151.7479,208.4753,0,U,52761,999,22438,.35609E-3,.16814E-3,0
SHERPA-AC1,2022-057AH,2026-06-05T20:42:54.603936,15.36102557,.0008754,97.6679,305.6196,127.7405,232.4632,0,U,52763,999,22396,.26931E-3,.9397E-4,0
OMNI-L2,2022-057AR,2026-06-05T10:29:03.851232,14.81338531,.00068638,97.4719,219.5847,17.0910,343.0534,0,U,52771,999,21865,.20816829E-3,.1579E-4,0
STEP CUBE LAB-II,2022-065D,2026-06-05T20:28:44.999904,14.63285452,.00098638,98.2220,300.7905,63.9044,296.3172,0,U,52897,999,20984,.19825209E-3,.975E-5,0
RANDEV,2022-065E,2026-06-05T20:34:36.638400,14.63672684,.00092027,98.2203,301.1417,64.2837,295.9315,0,U,52898,999,20959,.22378267E-3,.1117E-4,0
SNUGLITE-II,2022-065F,2026-06-05T08:18:53.878752,14.64324999,.00086036,98.2190,301.1992,66.1364,294.0739,0,U,52899,999,20926,.21539832E-3,.1089E-4,0
MIMAN,2022-065G,2026-06-05T08:14:59.664768,14.61830654,.00087825,98.2247,298.8869,67.7423,292.4709,0,U,52900,999,20871,.13477726E-3,.626E-5,0
STARLINK-4362,2022-077A,2026-06-05T12:03:35.638848,15.05678406,.00023613,97.3985,335.9656,86.0060,274.1437,0,U,53043,999,21412,-.42986531E-3,-.626E-4,0
LARES-2,2022-080A,2026-06-03T13:15:00.088704,6.38965171,.00053798,70.1655,310.0052,337.8766,22.1504,0,U,53105,999,9079,0,-.12E-6,0
GREENCUBE (IO-117),2022-080E,2026-06-01T11:09:37.753056,6.42583280,.00088692,70.1435,303.7143,293.3663,66.6064,0,U,53109,999,9105,0,-.3E-7,0
STARLINK-4410,2022-084R,2026-06-06T00:00:02.999808,15.26826670,.00013837,97.6001,217.8576,75.9177,179.2331,0,U,53204,999,561,.46599088E-2,.12472E-2,0
COSMOS 2558,2022-089A,2026-06-05T21:27:06.486912,15.72866911,.000074,97.2256,260.5175,173.6635,186.4639,0,U,53323,999,21605,.96647E-3,.132437E-2,0
TECMS,2022-090A,2026-06-06T04:11:58.951104,15.21331476,.0002327,97.3137,225.5954,218.3744,141.7327,0,U,53346,999,21313,.19971E-3,.4404E-4,0
DONGPO 02,2022-098J,2026-06-06T04:13:41.695392,15.72465685,.0001135,97.5512,287.4301,320.6921,39.4259,0,U,53452,999,21306,.92515E-3,.12453E-2,0
DONGPO 01,2022-098K,2026-06-06T05:11:05.352288,15.70523141,.0001054,97.5577,288.0262,242.9385,117.1770,0,U,53453,999,21303,.90088E-3,.111624E-2,0
STARLINK-4400,2022-099D,2026-06-05T19:32:11.206176,15.05653295,.00010157,97.4037,276.3441,193.8500,166.2700,0,U,53468,999,20923,.47713548E-4,.631E-5,0
STARLINK-4621,2022-105AE,2026-06-04T05:19:24.933504,15.05627826,.00024804,97.4061,34.8288,59.2736,300.8735,0,U,53676,999,20625,.78463932E-4,.1074E-4,0
SHERPA-LTC2,2022-107BG,2026-06-05T15:00:31.777920,14.69555227,.03951835,53.2351,269.2709,193.6523,165.3513,0,U,53754,999,20084,.41379217E-3,.8247E-4,0
CENTISPACE-1 S3,2022-108A,2026-06-05T22:07:07.176576,14.61238303,.0008666,53.5322,101.8420,322.7315,37.3058,0,U,53757,999,19988,.13552E-3,.484E-5,0
CENTISPACE-1 S4,2022-108B,2026-06-05T21:52:02.393184,14.61915577,.0007972,53.5298,99.4565,309.5724,50.4546,0,U,53758,999,19991,.16795E-3,.657E-5,0
BLUEWALKER-3,2022-111AL,2026-06-05T02:16:00.481728,15.38113643,.0007068,53.2291,90.7369,127.5569,232.6079,0,U,53807,999,20834,.19133E-3,.69E-4,0
YUNHAI-1 03,2022-115A,2026-06-05T20:58:13.459296,14.32710454,.00060339,98.5532,155.1647,82.2365,277.9504,0,U,53877,999,19389,.14793646E-3,.359E-5,0
CENTISPACE-1 S5,2022-126A,2026-06-05T22:43:37.497792,14.62996719,.00141754,54.9991,257.9395,51.5408,308.6856,0,U,54020,999,19539,.23189538E-3,.1009E-4,0
CENTISPACE-1 S6,2022-126B,2026-06-05T22:25:48.169920,14.62277618,.00160292,54.9994,259.8023,51.1128,309.1293,0,U,54021,999,19535,.18881701E-3,.772E-5,0
OTB-3-GAZELLE,2022-127A,2026-06-05T11:27:19.481184,14.42670166,.00122638,98.3941,148.3602,219.6573,140.3721,0,U,54023,999,19267,.64709839E-4,.172E-5,0
ASO-S,2022-129A,2026-06-05T21:12:53.447616,14.52056275,.00154628,98.2748,162.1263,124.5499,235.7158,0,U,54029,999,19378,.75986549E-4,.263E-5,0
HJ-2E,2022-132A,2026-06-05T23:29:06.991296,15.22143077,.00218581,97.3801,161.5586,52.7328,307.5897,0,U,54035,999,20271,.46184277E-3,.10595E-3,0
COSMOS 2561,2022-137A,2026-06-05T21:00:52.545888,15.51408996,.0011712,96.9182,216.3017,72.4812,287.7721,0,U,54109,999,20459,.2611E-3,.15341E-3,0
GONETS-M 23,2022-139A,2026-06-05T19:58:22.213920,12.42890327,.00205741,82.5074,355.3526,245.6799,114.2133,0,U,54150,999,16423,.55956838E-4,.18E-6,0
GONETS-M 24,2022-139B,2026-06-05T21:15:33.405984,12.42890943,.00157649,82.4990,354.3868,256.4017,103.5307,0,U,54151,999,16424,.10930229E-3,.25E-6,0
GONETS-M 25,2022-139C,2026-06-05T22:51:50.752800,12.42889614,.00196876,82.5050,355.0255,254.6587,105.2317,0,U,54152,999,16425,-.45310452E-4,.3E-7,0
SKIF-D,2022-139D,2026-06-05T06:21:51.112224,5.00431182,.00073766,89.9527,96.6710,204.6047,155.4055,0,U,54153,999,6351,0,.21E-6,0
MATS,2022-147A,2026-06-05T11:35:04.801344,15.05281785,.00112114,97.6823,158.1306,235.3719,124.6450,0,U,54227,999,19600,.30887716E-3,.4359E-4,0
JILIN-1 GAOFEN 03D54,2022-155D,2026-06-05T23:35:49.285248,15.91869039,.00034434,97.6138,308.6520,272.5330,87.5549,0,U,54254,999,19851,.99737205E-3,.325505E-2,.42105956E-4
EOS-6 (OCEANSAT-3),2022-158A,2026-06-05T23:03:13.902048,14.46993790,.00017494,98.3532,255.3040,60.8079,299.3288,0,U,54361,999,18621,.10415519E-3,.335E-5,0
DONGPO 09,2022-167D,2026-06-06T00:15:51.727968,15.36079545,.00031586,97.6898,327.5219,141.7987,218.3480,0,U,54685,999,19373,.46185949E-3,.16162E-3,0
DONGPO 08,2022-167E,2026-06-05T23:19:40.010304,15.33414373,.00077856,97.6861,324.7120,198.6205,161.4752,0,U,54686,999,19360,.41478703E-3,.13332E-3,0
2022-167F,2022-167F,2026-06-05T22:43:24.321792,15.88048821,.00011654,97.6142,343.5098,169.8409,190.2886,0,U,54687,999,19504,.88920006E-3,.246577E-2,0
DONGPO 10,2022-167H,2026-06-05T23:37:43.019616,15.34217971,.00058957,97.6943,326.6501,142.1476,218.0181,0,U,54689,999,19364,.44580248E-3,.14701E-3,0
JILIN-1 GAOFEN 03D48,2022-167P,2026-06-05T23:42:24.604992,15.34974121,.00071705,97.6878,326.0277,148.8669,211.3000,0,U,54695,999,19367,.44940544E-3,.15186E-3,0
STAR VIBE,2023-001A,2026-06-06T00:17:22.846272,15.42303289,.00067694,97.3171,221.4331,143.9860,216.1844,0,U,55009,999,19050,.44732945E-3,.19212E-3,0
BRO-8,2023-001C,2026-06-05T23:59:12.784128,15.48358209,.00068491,97.3211,222.0278,153.7211,206.4388,0,U,55011,999,19047,.79949032E-3,.42414E-3,0
CONNECTA T1.2,2023-001D,2026-06-05T22:33:17.012736,15.49815971,.00069153,97.3288,227.4361,136.7298,223.4498,0,U,55012,999,19080,.56600377E-3,.31529E-3,0
BIRKELAND,2023-001G,2026-06-05T23:17:07.434816,15.39878863,.00080366,97.3344,224.9129,137.5168,222.6701,0,U,55015,999,19062,.28879536E-3,.11408E-3,0
ION SCV-008,2023-001AU,2026-06-05T20:19:42.503808,15.28438333,.001601,97.5702,252.9771,56.3135,303.9628,0,U,55051,999,18960,.29564809E-3,.8138E-4,0
ION SCV-007,2023-001BD,2026-06-05T09:56:56.719104,14.77542538,.00127354,97.9009,219.6624,20.5157,339.6562,0,U,55060,999,18451,.75142074E-4,.486E-5,0
HUYGENS,2023-001CN,2026-06-05T23:17:15.913248,15.39870018,.00111462,97.3249,224.1574,120.4786,239.7563,0,U,55093,999,19064,.29438424E-3,.1164E-3,0
SHARJAHSAT-1,2023-001CZ,2026-06-05T22:27:42.209280,15.48629387,.00069956,97.3172,225.5494,135.8671,224.3140,0,U,55104,999,19075,.49074337E-3,.26194E-3,0
HORUS 1,2023-025A,2026-06-05T23:41:33.978048,15.23483043,.00019935,97.3460,231.8166,130.3194,229.8217,0,U,55690,999,18234,.29582668E-3,.6988E-4,0
HORUS 2,2023-032A,2026-06-06T00:31:29.913600,15.23306614,.00020785,97.3532,232.6472,115.2937,244.8516,0,U,55844,999,17978,.31847615E-3,.7489E-4,0
GLOBAL-19,2023-041B,2026-06-02T19:30:51.402816,15.38861461,.00073919,42.0025,285.7177,249.6784,110.3261,0,U,55982,999,17971,.4120608E-3,.15983E-3,0
BRO-9,2023-054H,2026-06-05T13:28:19.862400,15.93368510,.00067697,97.2930,74.0944,129.1901,230.9976,0,U,56185,999,17723,.10094706E-2,.356675E-2,.51094166E-4
ION SCV-010,2023-054Q,2026-06-05T10:09:52.332768,15.26091325,.00112558,97.3791,46.0747,242.4131,117.5965,0,U,56192,999,17440,.18860563E-3,.4797E-4,0
TELEOS-2,2023-057C,2026-06-05T21:24:30.760416,14.96374255,.00011173,9.9854,286.4560,55.0249,305.0069,0,U,56310,999,17110,-.20690119E-3,-.1719E-4,0
SNIPE 4,2023-072B,2026-06-05T22:09:55.046592,15.41895717,.00054879,97.5261,2.5747,21.9508,338.1973,0,U,56744,999,16837,.6500489E-3,.276E-3,0
